start=new Date('2022-04-11T00:00:00.000Z').valueOf();
sats=[{"COUNTRY_CODE":"US","SEMIMAJOR_AXIS":"6925.335","SITE":"AFETR","TLE_LINE1":"1 45390U 20019AG  22100.64047543  .00000087  00000-0  24736-4 0  9992","BSTAR":"0.00002473600000","REV_AT_EPOCH":"11461","RA_OF_ASC_NODE":"81.8725","TIME_SYSTEM":"UTC","DECAY_DATE":null,"FILE":"3396586","OBJECT_ID":"2020-019AG","MEAN_ELEMENT_THEORY":"SGP4","OBJECT_TYPE":"PAYLOAD","INCLINATION":"53.0536","MEAN_ANOMALY":"314.4877","ECCENTRICITY":"0.00018470","LAUNCH_DATE":"2020-03-18","ARG_OF_PERICENTER":"45.6263","OBJECT_NAME":"STARLINK-1284","TLE_LINE2":"2 45390  53.0536  81.8725 0001847  45.6263 314.4877 15.06404383114613","EPOCH":"2022-04-10T15:22:17.077152","EPHEMERIS_TYPE":"0","MEAN_MOTION_DDOT":"0.0000000000000","CLASSIFICATION_TYPE":"U","ELEMENT_SET_NO":"999","PERIOD":"95.592","PERIAPSIS":"545.921","NORAD_CAT_ID":"45390","RCS_SIZE":"LARGE","MEAN_MOTION_DOT":"0.00000087","REF_FRAME":"TEME","CENTER_NAME":"EARTH","MEAN_MOTION":"15.06404383","APOAPSIS":"548.479","GP_ID":"200939311"},{"PERIOD":"95.592","PERIAPSIS":"546.330","ELEMENT_SET_NO":"999","NORAD_CAT_ID":"45391","MEAN_MOTION_DOT":"0.00001213","RCS_SIZE":"LARGE","REF_FRAME":"TEME","CENTER_NAME":"EARTH","APOAPSIS":"548.124","MEAN_MOTION":"15.06395529","GP_ID":"200939562","SEMIMAJOR_AXIS":"6925.362","COUNTRY_CODE":"US","SITE":"AFETR","REV_AT_EPOCH":"11434","RA_OF_ASC_NODE":"81.8074","BSTAR":"0.00010032000000","TLE_LINE1":"1 45391U 20019AH  22100.65522710  .00001213  00000-0  10032-3 0  9993","DECAY_DATE":null,"TIME_SYSTEM":"UTC","OBJECT_TYPE":"PAYLOAD","MEAN_ANOMALY":"275.4381","MEAN_ELEMENT_THEORY":"SGP4","INCLINATION":"53.0549","FILE":"3396586","OBJECT_ID":"2020-019AH","TLE_LINE2":"2 45391  53.0549  81.8074 0001295  84.6755 275.4381 15.06395529114348","EPOCH":"2022-04-10T15:43:31.621440","OBJECT_NAME":"STARLINK-1289","ARG_OF_PERICENTER":"84.6755","LAUNCH_DATE":"2020-03-18","ECCENTRICITY":"0.00012950","EPHEMERIS_TYPE":"0","MEAN_MOTION_DDOT":"0.0000000000000","CLASSIFICATION_TYPE":"U"},{"MEAN_ANOMALY":"260.8550","OBJECT_TYPE":"PAYLOAD","INCLINATION":"52.9941","MEAN_ELEMENT_THEORY":"SGP4","FILE":"3396586","OBJECT_ID":"2020-019AJ","EPOCH":"2022-04-10T15:27:38.946528","TLE_LINE2":"2 45392  52.9941  74.3293 0001483  99.2608 260.8550 15.11076012114403","OBJECT_NAME":"STARLINK-1290","ARG_OF_PERICENTER":"99.2608","LAUNCH_DATE":"2020-03-18","ECCENTRICITY":"0.00014830","EPHEMERIS_TYPE":"0","MEAN_MOTION_DDOT":"0.0000000000000","CLASSIFICATION_TYPE":"U","SEMIMAJOR_AXIS":"6911.054","COUNTRY_CODE":"US","SITE":"AFETR","RA_OF_ASC_NODE":"74.3293","REV_AT_EPOCH":"11440","TLE_LINE1":"1 45392U 20019AJ  22100.64420077  .00018034  00000-0  10800-2 0  9997","BSTAR":"0.00108000000000","DECAY_DATE":null,"TIME_SYSTEM":"UTC","REF_FRAME":"TEME","CENTER_NAME":"EARTH","APOAPSIS":"533.944","MEAN_MOTION":"15.11076012","GP_ID":"200938310","PERIAPSIS":"531.894","PERIOD":"95.296","ELEMENT_SET_NO":"999","NORAD_CAT_ID":"45392","MEAN_MOTION_DOT":"0.00018034","RCS_SIZE":"LARGE"},{"GP_ID":"200938560","APOAPSIS":"548.286","MEAN_MOTION":"15.06410654","CENTER_NAME":"EARTH","REF_FRAME":"TEME","MEAN_MOTION_DOT":"0.00003856","RCS_SIZE":"LARGE","NORAD_CAT_ID":"45393","PERIAPSIS":"546.076","PERIOD":"95.591","ELEMENT_SET_NO":"999","CLASSIFICATION_TYPE":"U","EPHEMERIS_TYPE":"0","MEAN_MOTION_DDOT":"0.0000000000000","TLE_LINE2":"2 45393  53.0538  81.6688 0001596  70.7282 289.3879 15.06410654114389","OBJECT_NAME":"STARLINK-1291","EPOCH":"2022-04-10T16:25:58.180224","ARG_OF_PERICENTER":"70.7282","LAUNCH_DATE":"2020-03-18","ECCENTRICITY":"0.00015960","MEAN_ELEMENT_THEORY":"SGP4","OBJECT_TYPE":"PAYLOAD","INCLINATION":"53.0538","MEAN_ANOMALY":"289.3879","OBJECT_ID":"2020-019AK","FILE":"3396586","DECAY_DATE":null,"TIME_SYSTEM":"UTC","RA_OF_ASC_NODE":"81.6688","REV_AT_EPOCH":"11438","BSTAR":"0.00027752000000","TLE_LINE1":"1 45393U 20019AK  22100.68470116  .00003856  00000-0  27752-3 0  9992","SITE":"AFETR","SEMIMAJOR_AXIS":"6925.316","COUNTRY_CODE":"US"},{"CLASSIFICATION_TYPE":"U","EPHEMERIS_TYPE":"0","MEAN_MOTION_DDOT":"0.0000000000000","ECCENTRICITY":"0.00015070","LAUNCH_DATE":"2020-03-18","ARG_OF_PERICENTER":"74.2626","OBJECT_NAME":"STARLINK-1292","TLE_LINE2":"2 45394  53.0540  81.8408 0001507  74.2626 285.8529 15.06411026114352","EPOCH":"2022-04-10T15:32:54.487104","FILE":"3396586","OBJECT_ID":"2020-019AL","MEAN_ELEMENT_THEORY":"SGP4","OBJECT_TYPE":"PAYLOAD","MEAN_ANOMALY":"285.8529","INCLINATION":"53.0540","TIME_SYSTEM":"UTC","DECAY_DATE":null,"BSTAR":"0.00050138000000","TLE_LINE1":"1 45394U 20019AL  22100.64785286  .00007197  00000-0  50138-3 0  9992","REV_AT_EPOCH":"11435","RA_OF_ASC_NODE":"81.8408","SITE":"AFETR","COUNTRY_CODE":"US","SEMIMAJOR_AXIS":"6925.315","GP_ID":"200939812","MEAN_MOTION":"15.06411026","APOAPSIS":"548.223","CENTER_NAME":"EARTH","REF_FRAME":"TEME","RCS_SIZE":"LARGE","MEAN_MOTION_DOT":"0.00007197","NORAD_CAT_ID":"45394","ELEMENT_SET_NO":"999","PERIOD":"95.591","PERIAPSIS":"546.136"},{"GP_ID":"200940063","MEAN_MOTION":"15.06409026","APOAPSIS":"548.225","CENTER_NAME":"EARTH","REF_FRAME":"TEME","MEAN_MOTION_DOT":"0.00003055","RCS_SIZE":"LARGE","NORAD_CAT_ID":"45395","ELEMENT_SET_NO":"999","PERIOD":"95.592","PERIAPSIS":"546.146","CLASSIFICATION_TYPE":"U","EPHEMERIS_TYPE":"0","MEAN_MOTION_DDOT":"0.0000000000000","ARG_OF_PERICENTER":"71.2302","EPOCH":"2022-04-10T16:15:21.737088","TLE_LINE2":"2 45395  53.0553  81.7147 0001501  71.2302 288.8850 15.06409026113804","OBJECT_NAME":"STARLINK-1297","ECCENTRICITY":"0.00015010","LAUNCH_DATE":"2020-03-18","OBJECT_TYPE":"PAYLOAD","MEAN_ANOMALY":"288.8850","INCLINATION":"53.0553","MEAN_ELEMENT_THEORY":"SGP4","OBJECT_ID":"2020-019AM","FILE":"3396586","TIME_SYSTEM":"UTC","DECAY_DATE":null,"REV_AT_EPOCH":"11380","RA_OF_ASC_NODE":"81.7147","TLE_LINE1":"1 45395U 20019AM  22100.67733492  .00003055  00000-0  22382-3 0  9997","BSTAR":"0.00022382000000","SITE":"AFETR","SEMIMAJOR_AXIS":"6925.321","COUNTRY_CODE":"US"},{"CENTER_NAME":"EARTH","REF_FRAME":"TEME","GP_ID":"200938811","MEAN_MOTION":"15.06395642","APOAPSIS":"548.321","ELEMENT_SET_NO":"999","PERIAPSIS":"546.133","PERIOD":"95.592","MEAN_MOTION_DOT":"-0.00000239","RCS_SIZE":"LARGE","NORAD_CAT_ID":"45396","ARG_OF_PERICENTER":"70.3767","TLE_LINE2":"2 45396  53.0536  81.7800 0001580  70.3767 289.7392 15.06395642114332","OBJECT_NAME":"STARLINK-1303","EPOCH":"2022-04-10T15:48:49.950144","ECCENTRICITY":"0.00015800","LAUNCH_DATE":"2020-03-18","OBJECT_TYPE":"PAYLOAD","MEAN_ANOMALY":"289.7392","MEAN_ELEMENT_THEORY":"SGP4","INCLINATION":"53.0536","FILE":"3396586","OBJECT_ID":"2020-019AN","CLASSIFICATION_TYPE":"U","MEAN_MOTION_DDOT":"0.0000000000000","EPHEMERIS_TYPE":"0","SITE":"AFETR","SEMIMAJOR_AXIS":"6925.362","COUNTRY_CODE":"US","TIME_SYSTEM":"UTC","DECAY_DATE":null,"RA_OF_ASC_NODE":"81.7800","REV_AT_EPOCH":"11433","TLE_LINE1":"1 45396U 20019AN  22100.65891146 -.00000239  00000-0  28460-5 0  9994","BSTAR":"0.00000284600000"},{"SEMIMAJOR_AXIS":"6925.347","COUNTRY_CODE":"US","SITE":"AFETR","REV_AT_EPOCH":"11444","RA_OF_ASC_NODE":"81.7269","BSTAR":"0.00008447300000","TLE_LINE1":"1 45397U 20019AP  22100.66996729  .00000977  00000-0  84473-4 0  9992","TIME_SYSTEM":"UTC","DECAY_DATE":null,"OBJECT_TYPE":"PAYLOAD","MEAN_ELEMENT_THEORY":"SGP4","MEAN_ANOMALY":"269.7803","INCLINATION":"53.0535","FILE":"3396586","OBJECT_ID":"2020-019AP","ARG_OF_PERICENTER":"90.3345","OBJECT_NAME":"STARLINK-1307","TLE_LINE2":"2 45397  53.0535  81.7269 0001386  90.3345 269.7803 15.06400428114445","EPOCH":"2022-04-10T16:04:45.173856","ECCENTRICITY":"0.00013860","LAUNCH_DATE":"2020-03-18","EPHEMERIS_TYPE":"0","MEAN_MOTION_DDOT":"0.0000000000000","CLASSIFICATION_TYPE":"U","ELEMENT_SET_NO":"999","PERIAPSIS":"546.252","PERIOD":"95.592","NORAD_CAT_ID":"45397","MEAN_MOTION_DOT":"0.00000977","RCS_SIZE":"LARGE","REF_FRAME":"TEME","CENTER_NAME":"EARTH","MEAN_MOTION":"15.06400428","APOAPSIS":"548.172","GP_ID":"200939061"},{"CLASSIFICATION_TYPE":"U","MEAN_MOTION_DDOT":"0.0000000000000","EPHEMERIS_TYPE":"0","ARG_OF_PERICENTER":"77.6565","TLE_LINE2":"2 45398  53.0533  83.2459 0001618  77.6565 282.4605 15.06401479114328","OBJECT_NAME":"STARLINK-1312","EPOCH":"2022-04-10T07:56:26.481984","ECCENTRICITY":"0.00016180","LAUNCH_DATE":"2020-03-18","OBJECT_TYPE":"PAYLOAD","MEAN_ELEMENT_THEORY":"SGP4","INCLINATION":"53.0533","MEAN_ANOMALY":"282.4605","FILE":"3396223","OBJECT_ID":"2020-019AQ","TIME_SYSTEM":"UTC","DECAY_DATE":null,"RA_OF_ASC_NODE":"83.2459","REV_AT_EPOCH":"11432","BSTAR":"0.00010448000000","TLE_LINE1":"1 45398U 20019AQ  22100.33086206  .00001275  00000-0  10448-3 0  9999","SITE":"AFETR","SEMIMAJOR_AXIS":"6925.344","COUNTRY_CODE":"US","GP_ID":"200906440","MEAN_MOTION":"15.06401479","APOAPSIS":"548.330","CENTER_NAME":"EARTH","REF_FRAME":"TEME","MEAN_MOTION_DOT":"0.00001275","RCS_SIZE":"LARGE","NORAD_CAT_ID":"45398","ELEMENT_SET_NO":"999","PERIAPSIS":"546.089","PERIOD":"95.592"},{"REV_AT_EPOCH":"11456","RA_OF_ASC_NODE":"71.8705","TLE_LINE1":"1 45399U 20019AR  22100.63771933  .00000753  00000-0  69438-4 0  9995","BSTAR":"0.00006943800000","DECAY_DATE":null,"TIME_SYSTEM":"UTC","SEMIMAJOR_AXIS":"6925.358","COUNTRY_CODE":"US","SITE":"AFETR","EPHEMERIS_TYPE":"0","MEAN_MOTION_DDOT":"0.0000000000000","CLASSIFICATION_TYPE":"U","MEAN_ELEMENT_THEORY":"SGP4","OBJECT_TYPE":"PAYLOAD","INCLINATION":"53.0552","MEAN_ANOMALY":"306.9362","OBJECT_ID":"2020-019AR","FILE":"3396586","OBJECT_NAME":"STARLINK-1255","TLE_LINE2":"2 45399  53.0552  71.8705 0001845  53.1796 306.9362 15.06397038114567","EPOCH":"2022-04-10T15:18:18.950112","ARG_OF_PERICENTER":"53.1796","LAUNCH_DATE":"2020-03-18","ECCENTRICITY":"0.00018450","NORAD_CAT_ID":"45399","MEAN_MOTION_DOT":"0.00000753","RCS_SIZE":"LARGE","PERIAPSIS":"545.945","PERIOD":"95.592","ELEMENT_SET_NO":"999","APOAPSIS":"548.500","MEAN_MOTION":"15.06397038","GP_ID":"200939563","REF_FRAME":"TEME","CENTER_NAME":"EARTH"}];
